{
  "type": "FeatureCollection",
  "features": [
    {
      "type": "Feature",
      "properties": {
        "norad_id": 66426,
        "name": "STARLINK-35589",
        "group": "last-30-days",
        "lat": -27.161112092710077,
        "lon": -86.88755316112321,
        "alt_km": 445.95943089723096,
        "timestamp": "2025-12-10T16:57:10.414671+00:00",
        "meta_object_name": "STARLINK-35589",
        "meta_object_id": "2025-259E",
        "meta_epoch": "2025-12-10T00:00:02.000160",
        "meta_mean_motion": 15.40656297,
        "meta_eccentricity": 0.00013887,
        "meta_inclination": 43.001,
        "meta_ra_of_asc_node": 63.7772,
        "meta_arg_of_pericenter": 267.7195,
        "meta_mean_anomaly": 351.8929,
        "meta_ephemeris_type": 0,
        "meta_classification_type": "U",
        "meta_norad_cat_id": 66426,
        "meta_element_set_no": 999,
        "meta_rev_at_epoch": 583,
        "meta_bstar": 0.00072512168,
        "meta_mean_motion_dot": 0.00030062,
        "meta_mean_motion_ddot": 0,
        "tle_line1": "1 66426U 25259E   25344.00002315  .00030062  00000+0  72512-3 0  9996",
        "tle_line2": "2 66426  43.0010  63.7772 0001388 267.7195 351.8929 15.40656297  5831"
      },
      "geometry": {
        "type": "Point",
        "coordinates": [
          -86.88755316112321,
          -27.161112092710077
        ]
      }
    },
    {
      "type": "Feature",
      "properties": {
        "norad_id": 66427,
        "name": "STARLINK-35611",
        "group": "last-30-days",
        "lat": -33.69681782086312,
        "lon": -74.63493455411465,
        "alt_km": 446.29977311513903,
        "timestamp": "2025-12-10T16:57:10.414682+00:00",
        "meta_object_name": "STARLINK-35611",
        "meta_object_id": "2025-259F",
        "meta_epoch": "2025-12-10T00:00:02.000160",
        "meta_mean_motion": 15.40658791,
        "meta_eccentricity": 0.00013922,
        "meta_inclination": 43.001,
        "meta_ra_of_asc_node": 63.7457,
        "meta_arg_of_pericenter": 274.4381,
        "meta_mean_anomaly": 357.6146,
        "meta_ephemeris_type": 0,
        "meta_classification_type": "U",
        "meta_norad_cat_id": 66427,
        "meta_element_set_no": 999,
        "meta_rev_at_epoch": 583,
        "meta_bstar": 0.00069946365,
        "meta_mean_motion_dot": 0.00028986,
        "meta_mean_motion_ddot": 0,
        "tle_line1": "1 66427U 25259F   25344.00002315  .00028986  00000+0  69946-3 0  9996",
        "tle_line2": "2 66427  43.0010  63.7457 0001392 274.4381 357.6146 15.40658791  5835"
      },
      "geometry": {
        "type": "Point",
        "coordinates": [
          -74.63493455411465,
          -33.69681782086312
        ]
      }
    },
    {
      "type": "Feature",
      "properties": {
        "norad_id": 66428,
        "name": "STARLINK-35610",
        "group": "last-30-days",
        "lat": -38.83377089288528,
        "lon": -60.60568340149823,
        "alt_km": 446.1821318857983,
        "timestamp": "2025-12-10T16:57:10.414692+00:00",
        "meta_object_name": "STARLINK-35610",
        "meta_object_id": "2025-259G",
        "meta_epoch": "2025-12-10T00:00:02.000160",
        "meta_mean_motion": 15.40584058,
        "meta_eccentricity": 0.00016245,
        "meta_inclination": 43.0009,
        "meta_ra_of_asc_node": 63.7155,
        "meta_arg_of_pericenter": 247.0402,
        "meta_mean_anomaly": 37.5595,
        "meta_ephemeris_type": 0,
        "meta_classification_type": "U",
        "meta_norad_cat_id": 66428,
        "meta_element_set_no": 999,
        "meta_rev_at_epoch": 583,
        "meta_bstar": 0.0017416795,
        "meta_mean_motion_dot": 0.00072867,
        "meta_mean_motion_ddot": 0,
        "tle_line1": "1 66428U 25259G   25344.00002315  .00072867  00000+0  17417-2 0  9999",
        "tle_line2": "2 66428  43.0009  63.7155 0001624 247.0402  37.5595 15.40584058  5833"
      },
      "geometry": {
        "type": "Point",
        "coordinates": [
          -60.60568340149823,
          -38.83377089288528
        ]
      }
    },
    {
      "type": "Feature",
      "properties": {
        "norad_id": 66429,
        "name": "STARLINK-35533",
        "group": "last-30-days",
        "lat": -42.103343713217,
        "lon": -44.51230973620933,
        "alt_km": 446.8104869590188,
        "timestamp": "2025-12-10T16:57:10.414703+00:00",
        "meta_object_name": "STARLINK-35533",
        "meta_object_id": "2025-259H",
        "meta_epoch": "2025-12-10T06:29:48.974208",
        "meta_mean_motion": 15.40778112,
        "meta_eccentricity": 3.59e-05,
        "meta_inclination": 42.9999,
        "meta_ra_of_asc_node": 62.1246,
        "meta_arg_of_pericenter": 312.8961,
        "meta_mean_anomaly": 47.1866,
        "meta_ephemeris_type": 0,
        "meta_classification_type": "U",
        "meta_norad_cat_id": 66429,
        "meta_element_set_no": 999,
        "meta_rev_at_epoch": 578,
        "meta_bstar": 0.0018891,
        "meta_mean_motion_dot": 0.00079643,
        "meta_mean_motion_ddot": 0,
        "tle_line1": "1 66429U 25259H   25344.27070572  .00079643  00000+0  18891-2 0  9995",
        "tle_line2": "2 66429  42.9999  62.1246 0000359 312.8961  47.1866 15.40778112  5787"
      },
      "geometry": {
        "type": "Point",
        "coordinates": [
          -44.51230973620933,
          -42.103343713217
        ]
      }
    },
    {
      "type": "Feature",
      "properties": {
        "norad_id": 66430,
        "name": "STARLINK-35470",
        "group": "last-30-days",
        "lat": -42.95808956940515,
        "lon": -28.161868754330055,
        "alt_km": 446.63063687812246,
        "timestamp": "2025-12-10T16:57:10.414714+00:00",
        "meta_object_name": "STARLINK-35470",
        "meta_object_id": "2025-259J",
        "meta_epoch": "2025-12-10T12:00:02.998944",
        "meta_mean_motion": 15.40676191,
        "meta_eccentricity": 0.0001135,
        "meta_inclination": 43.0004,
        "meta_ra_of_asc_node": 60.7774,
        "meta_arg_of_pericenter": 267.5604,
        "meta_mean_anomaly": 298.2888,
        "meta_ephemeris_type": 0,
        "meta_classification_type": "U",
        "meta_norad_cat_id": 66430,
        "meta_element_set_no": 999,
        "meta_rev_at_epoch": 592,
        "meta_bstar": 0.001762,
        "meta_mean_motion_dot": 0.00073959,
        "meta_mean_motion_ddot": 0,
        "tle_line1": "1 66430U 25259J   25344.50003471  .00073959  00000+0  17620-2 0  9990",
        "tle_line2": "2 66430  43.0004  60.7774 0001135 267.5604 298.2888 15.40676191  5924"
      },
      "geometry": {
        "type": "Point",
        "coordinates": [
          -28.161868754330055,
          -42.95808956940515
        ]
      }
    },
    {
      "type": "Feature",
      "properties": {
        "norad_id": 66431,
        "name": "STARLINK-35439",
        "group": "last-30-days",
        "lat": -41.37840416076385,
        "lon": -11.417470501489278,
        "alt_km": 446.65925086923926,
        "timestamp": "2025-12-10T16:57:10.414724+00:00",
        "meta_object_name": "STARLINK-35439",
        "meta_object_id": "2025-259K",
        "meta_epoch": "2025-12-10T12:00:02.998944",
        "meta_mean_motion": 15.40650111,
        "meta_eccentricity": 0.0001181,
        "meta_inclination": 43.0002,
        "meta_ra_of_asc_node": 60.7449,
        "meta_arg_of_pericenter": 301.4531,
        "meta_mean_anomaly": 276.9544,
        "meta_ephemeris_type": 0,
        "meta_classification_type": "U",
        "meta_norad_cat_id": 66431,
        "meta_element_set_no": 999,
        "meta_rev_at_epoch": 592,
        "meta_bstar": 0.001621,
        "meta_mean_motion_dot": 0.000679,
        "meta_mean_motion_ddot": 0,
        "tle_line1": "1 66431U 25259K   25344.50003471  .00067900  00000+0  16210-2 0  9994",
        "tle_line2": "2 66431  43.0002  60.7449 0001181 301.4531 276.9544 15.40650111  5926"
      },
      "geometry": {
        "type": "Point",
        "coordinates": [
          -11.417470501489278,
          -41.37840416076385
        ]
      }
    },
    {
      "type": "Feature",
      "properties": {
        "norad_id": 66432,
        "name": "STARLINK-35446",
        "group": "last-30-days",
        "lat": -37.564540783383215,
        "lon": 3.8989076344928226,
        "alt_km": 446.6181715048033,
        "timestamp": "2025-12-10T16:57:10.414735+00:00",
        "meta_object_name": "STARLINK-35446",
        "meta_object_id": "2025-259L",
        "meta_epoch": "2025-12-10T12:00:02.998944",
        "meta_mean_motion": 15.40642698,
        "meta_eccentricity": 0.0001022,
        "meta_inclination": 42.9999,
        "meta_ra_of_asc_node": 60.7138,
        "meta_arg_of_pericenter": 277.0126,
        "meta_mean_anomaly": 313.8382,
        "meta_ephemeris_type": 0,
        "meta_classification_type": "U",
        "meta_norad_cat_id": 66432,
        "meta_element_set_no": 999,
        "meta_rev_at_epoch": 592,
        "meta_bstar": 0.0014258,
        "meta_mean_motion_dot": 0.00059608,
        "meta_mean_motion_ddot": 0,
        "tle_line1": "1 66432U 25259L   25344.50003471  .00059608  00000+0  14258-2 0  9991",
        "tle_line2": "2 66432  42.9999  60.7138 0001022 277.0126 313.8382 15.40642698  5929"
      },
      "geometry": {
        "type": "Point",
        "coordinates": [
          3.8989076344928226,
          -37.564540783383215
        ]
      }
    }
  ]
}